KUIPER-00035            
1 63748U 25088AA  25237.33133562  .00000400  00000+0  81841-4 0  9995
2 63748  51.8999 262.3981 0005870 144.4065 215.7290 14.79838390 18430
KUIPER-00037            
1 63749U 25088AB  25237.33232499  .00000584  00000+0  10579-3 0  9997
2 63749  51.8992 261.3576 0007019  88.8904 271.2863 14.79925611 19238
KUIPER-00038            
1 63750U 25088AC  25237.91670139  .00006859  00000+0  46180-3 0  9998
2 63750  51.8860 245.6608 0004940 147.4752 139.1951 15.07739825  3862
KUIPER-00039            
1 64500U 25134A   25237.91670139 -.01148846  00000+0 -44510-1 0  9993
2 64500  51.8742  25.3953 0009404 343.0268 196.6220 15.28661590  5479
KUIPER-00040            
1 64501U 25134B   25237.91670139  .00022262  00000+0  20030-2 0  9996
2 64501  51.8913  30.7747 0017453 346.3309 354.1557 14.95438547  5826
KUIPER-00041            
1 64502U 25134C   25237.91670139  .00024722  00000+0  25189-2 0  9990
2 64502  51.8926  31.7227 0013365 338.9865 207.5712 14.90491418  3763
KUIPER-00042            
1 64503U 25134D   25237.91670139 -.00301683  00000+0 -21668-1 0  9994
2 64503  51.9013  28.9882 0012616 351.6257 215.0489 15.05314710  5664
KUIPER-00043            
1 64504U 25134E   25237.91670139 -.00593688  00000+0 -25923-1 0  9991
2 64504  51.8774  25.9742 0009093 344.3606 296.6707 15.23851303  5866
